[Satellite]
VERSION=1.1
NAME=DELTA 1 R/B
NICKNAME=DELTA 1 R/B
TLE1=1 20323U 89089B   18020.82988643  .00000034  00000-0  17767-4 0  9992
TLE2=2 20323  97.1244 297.5323 0073167 115.5911 245.2870 14.48238573465690
